[{"OBJECT_NAME":"CUBESX-HSE 3 (RS42S)","OBJECT_ID":"2023-091N","EPOCH":"2026-03-09T22:57:25.321248","MEAN_MOTION":15.286147,"ECCENTRICITY":0.00127191,"INCLINATION":97.5203,"RA_OF_ASC_NODE":133.4295,"ARG_OF_PERICENTER":86.5376,"MEAN_ANOMALY":273.7318,"EPHEMERIS_TYPE":0,"CLASSIFICATION_TYPE":"U","NORAD_CAT_ID":57178,"ELEMENT_SET_NO":999,"REV_AT_EPOCH":14925,"BSTAR":0.00059055694,"MEAN_MOTION_DOT":0.00016417,"MEAN_MOTION_DDOT":0},{"OBJECT_NAME":"STARLINK-32676","OBJECT_ID":"2024-249T","EPOCH":"2026-03-09T09:35:54.633696","MEAN_MOTION":15.27568767,"ECCENTRICITY":3.742e-5,"INCLINATION":43.0006,"RA_OF_ASC_NODE":316.1997,"ARG_OF_PERICENTER":22.4031,"MEAN_ANOMALY":337.6837,"EPHEMERIS_TYPE":0,"CLASSIFICATION_TYPE":"U","NORAD_CAT_ID":62426,"ELEMENT_SET_NO":999,"REV_AT_EPOCH":6776,"BSTAR":0.00081741529,"MEAN_MOTION_DOT":0.00022292,"MEAN_MOTION_DDOT":0}]
